[{"OBJECT_NAME":"STARLINK-30116","OBJECT_ID":"2023-107J","EPOCH":"2026-03-09T03:38:04.630272","MEAN_MOTION":15.26729842,"ECCENTRICITY":0.00019616,"INCLINATION":43.0029,"RA_OF_ASC_NODE":339.2408,"ARG_OF_PERICENTER":277.6766,"MEAN_ANOMALY":82.3863,"EPHEMERIS_TYPE":0,"CLASSIFICATION_TYPE":"U","NORAD_CAT_ID":57465,"ELEMENT_SET_NO":999,"REV_AT_EPOCH":14506,"BSTAR":-5.3767112e-5,"MEAN_MOTION_DOT":-1.702e-5,"MEAN_MOTION_DDOT":0},{"OBJECT_NAME":"TRANSPORTER-12 OBJECT BT","OBJECT_ID":"2025-009BT","EPOCH":"2026-03-09T17:08:24.281088","MEAN_MOTION":15.27872239,"ECCENTRICITY":0.00036816,"INCLINATION":97.4094,"RA_OF_ASC_NODE":151.5992,"ARG_OF_PERICENTER":313.5044,"MEAN_ANOMALY":46.5889,"EPHEMERIS_TYPE":0,"CLASSIFICATION_TYPE":"U","NORAD_CAT_ID":62674,"ELEMENT_SET_NO":999,"REV_AT_EPOCH":12136,"BSTAR":0.000510288,"MEAN_MOTION_DOT":0.00013824,"MEAN_MOTION_DDOT":0}]
